{"fetched_at":"2026-07-18T17:29:59.338Z","source":"https://celestrak.org/NORAD/elements/gp.php?NAME=ICEYE&FORMAT=JSON","constellation":"iceye","records":[{"OBJECT_NAME":"ICEYE-X2","OBJECT_ID":"2018-099AU","EPOCH":"2026-07-18T07:44:57.066144","CLASSIFICATION_TYPE":"U","MEAN_MOTION":15.18059066,"ECCENTRICITY":0.00101989,"INCLINATION":97.4334,"RA_OF_ASC_NODE":252.6193,"ARG_OF_PERICENTER":183.6376,"MEAN_ANOMALY":176.4786,"EPHEMERIS_TYPE":0,"NORAD_CAT_ID":43800,"ELEMENT_SET_NO":999,"REV_AT_EPOCH":41754,"BSTAR":0.00005789436,"MEAN_MOTION_DOT":0.00001113,"MEAN_MOTION_DDOT":0},{"OBJECT_NAME":"ICEYE-X4","OBJECT_ID":"2019-038D","EPOCH":"2026-07-18T08:04:22.658304","CLASSIFICATION_TYPE":"U","MEAN_MOTION":15.2992164,"ECCENTRICITY":0.00131929,"INCLINATION":97.8743,"RA_OF_ASC_NODE":234.0933,"ARG_OF_PERICENTER":186.9266,"MEAN_ANOMALY":173.1793,"EPHEMERIS_TYPE":0,"NORAD_CAT_ID":44390,"ELEMENT_SET_NO":999,"REV_AT_EPOCH":38656,"BSTAR":0.00021201552,"MEAN_MOTION_DOT":0.00006072,"MEAN_MOTION_DDOT":0},{"OBJECT_NAME":"ICEYE-X7","OBJECT_ID":"2020-068L","EPOCH":"2026-07-18T07:12:32.207328","CLASSIFICATION_TYPE":"U","MEAN_MOTION":15.32134926,"ECCENTRICITY":0.00063537,"INCLINATION":97.7514,"RA_OF_ASC_NODE":167.2582,"ARG_OF_PERICENTER":200.2878,"MEAN_ANOMALY":159.8111,"EPHEMERIS_TYPE":0,"NORAD_CAT_ID":46496,"ELEMENT_SET_NO":999,"REV_AT_EPOCH":31955,"BSTAR":0.00018673003,"MEAN_MOTION_DOT":0.00005711,"MEAN_MOTION_DDOT":0},{"OBJECT_NAME":"ICEYE-X6","OBJECT_ID":"2020-068M","EPOCH":"2026-07-18T05:57:59.580000","CLASSIFICATION_TYPE":"U","MEAN_MOTION":15.04676292,"ECCENTRICITY":0.00069611,"INCLINATION":98.0993,"RA_OF_ASC_NODE":194.4103,"ARG_OF_PERICENTER":1.7511,"MEAN_ANOMALY":358.3737,"EPHEMERIS_TYPE":0,"NORAD_CAT_ID":46497,"ELEMENT_SET_NO":999,"REV_AT_EPOCH":31790,"BSTAR":0.000094491016,"MEAN_MOTION_DOT":0.00001262,"MEAN_MOTION_DDOT":0},{"OBJECT_NAME":"ICEYE-X21","OBJECT_ID":"2023-001AS","EPOCH":"2026-06-24T05:11:18.420288","CLASSIFICATION_TYPE":"U","MEAN_MOTION":16.24069885,"ECCENTRICITY":0.00123774,"INCLINATION":97.3001,"RA_OF_ASC_NODE":262.6152,"ARG_OF_PERICENTER":285.9702,"MEAN_ANOMALY":74.0225,"EPHEMERIS_TYPE":0,"NORAD_CAT_ID":55049,"ELEMENT_SET_NO":999,"REV_AT_EPOCH":19475,"BSTAR":0.000602142,"MEAN_MOTION_DOT":0.01585954,"MEAN_MOTION_DDOT":0.000002396838},{"OBJECT_NAME":"ICEYE-X25","OBJECT_ID":"2023-084AH","EPOCH":"2026-07-18T06:16:55.561152","CLASSIFICATION_TYPE":"U","MEAN_MOTION":15.62958135,"ECCENTRICITY":0.00044661,"INCLINATION":97.5921,"RA_OF_ASC_NODE":347.7231,"ARG_OF_PERICENTER":175.8359,"MEAN_ANOMALY":184.2937,"EPHEMERIS_TYPE":0,"NORAD_CAT_ID":56963,"ELEMENT_SET_NO":999,"REV_AT_EPOCH":17282,"BSTAR":0.00020822895,"MEAN_MOTION_DOT":0.00018746,"MEAN_MOTION_DDOT":0},{"OBJECT_NAME":"ICEYE-X31","OBJECT_ID":"2023-174AJ","EPOCH":"2026-07-18T05:39:30.186720","CLASSIFICATION_TYPE":"U","MEAN_MOTION":15.35235604,"ECCENTRICITY":0.00030303,"INCLINATION":97.3766,"RA_OF_ASC_NODE":274.9865,"ARG_OF_PERICENTER":177.6859,"MEAN_ANOMALY":182.4399,"EPHEMERIS_TYPE":0,"NORAD_CAT_ID":58288,"ELEMENT_SET_NO":999,"REV_AT_EPOCH":14951,"BSTAR":0.00027813909,"MEAN_MOTION_DOT":0.00009437,"MEAN_MOTION_DDOT":0},{"OBJECT_NAME":"ICEYE-X34","OBJECT_ID":"2023-174AQ","EPOCH":"2026-07-18T04:28:13.642464","CLASSIFICATION_TYPE":"U","MEAN_MOTION":15.71969336,"ECCENTRICITY":0.00020806,"INCLINATION":97.3859,"RA_OF_ASC_NODE":292.0251,"ARG_OF_PERICENTER":218.0301,"MEAN_ANOMALY":142.0815,"EPHEMERIS_TYPE":0,"NORAD_CAT_ID":58294,"ELEMENT_SET_NO":999,"REV_AT_EPOCH":15060,"BSTAR":0.00084048825,"MEAN_MOTION_DOT":0.00110602,"MEAN_MOTION_DDOT":0},{"OBJECT_NAME":"ICEYE-X35","OBJECT_ID":"2023-174AY","EPOCH":"2026-07-18T06:41:41.202240","CLASSIFICATION_TYPE":"U","MEAN_MOTION":15.55376721,"ECCENTRICITY":0.00074739,"INCLINATION":97.378,"RA_OF_ASC_NODE":284.7754,"ARG_OF_PERICENTER":97.7533,"MEAN_ANOMALY":262.457,"EPHEMERIS_TYPE":0,"NORAD_CAT_ID":58302,"ELEMENT_SET_NO":999,"REV_AT_EPOCH":15017,"BSTAR":0.00049674199,"MEAN_MOTION_DOT":0.00033792,"MEAN_MOTION_DDOT":0},{"OBJECT_NAME":"ICEYE-X38","OBJECT_ID":"2024-043C","EPOCH":"2026-07-18T08:00:21.812256","CLASSIFICATION_TYPE":"U","MEAN_MOTION":15.13106841,"ECCENTRICITY":0.0002053,"INCLINATION":97.8444,"RA_OF_ASC_NODE":343.9488,"ARG_OF_PERICENTER":11.7517,"MEAN_ANOMALY":348.3761,"EPHEMERIS_TYPE":0,"NORAD_CAT_ID":59100,"ELEMENT_SET_NO":999,"REV_AT_EPOCH":11638,"BSTAR":0.00013502308,"MEAN_MOTION_DOT":0.00002321,"MEAN_MOTION_DDOT":0},{"OBJECT_NAME":"ICEYE-X37","OBJECT_ID":"2024-043E","EPOCH":"2026-07-18T04:54:55.233216","CLASSIFICATION_TYPE":"U","MEAN_MOTION":15.06302546,"ECCENTRICITY":0.00139021,"INCLINATION":97.8346,"RA_OF_ASC_NODE":336.7028,"ARG_OF_PERICENTER":263.0249,"MEAN_ANOMALY":96.9396,"EPHEMERIS_TYPE":0,"NORAD_CAT_ID":59102,"ELEMENT_SET_NO":999,"REV_AT_EPOCH":12975,"BSTAR":0.00014418771,"MEAN_MOTION_DOT":0.00002057,"MEAN_MOTION_DDOT":0},{"OBJECT_NAME":"ICEYE-X36","OBJECT_ID":"2024-043F","EPOCH":"2026-07-18T02:58:28.580160","CLASSIFICATION_TYPE":"U","MEAN_MOTION":15.0724832,"ECCENTRICITY":0.00055075,"INCLINATION":97.8412,"RA_OF_ASC_NODE":337.7569,"ARG_OF_PERICENTER":202.1022,"MEAN_ANOMALY":157.9969,"EPHEMERIS_TYPE":0,"NORAD_CAT_ID":59103,"ELEMENT_SET_NO":999,"REV_AT_EPOCH":12980,"BSTAR":0.00015579448,"MEAN_MOTION_DOT":0.00002283,"MEAN_MOTION_DDOT":0},{"OBJECT_NAME":"ICEYE-X43","OBJECT_ID":"2024-149BZ","EPOCH":"2026-07-18T04:29:32.878176","CLASSIFICATION_TYPE":"U","MEAN_MOTION":14.99790598,"ECCENTRICITY":0.00063917,"INCLINATION":97.679,"RA_OF_ASC_NODE":275.7361,"ARG_OF_PERICENTER":334.2876,"MEAN_ANOMALY":25.8028,"EPHEMERIS_TYPE":0,"NORAD_CAT_ID":60539,"ELEMENT_SET_NO":999,"REV_AT_EPOCH":10476,"BSTAR":0.000051418465,"MEAN_MOTION_DOT":0.00000577,"MEAN_MOTION_DDOT":0},{"OBJECT_NAME":"ICEYE-X39","OBJECT_ID":"2024-149CG","EPOCH":"2026-07-18T03:54:57.026592","CLASSIFICATION_TYPE":"U","MEAN_MOTION":15.00086374,"ECCENTRICITY":0.00068822,"INCLINATION":97.6795,"RA_OF_ASC_NODE":275.7706,"ARG_OF_PERICENTER":38.4282,"MEAN_ANOMALY":321.743,"EPHEMERIS_TYPE":0,"NORAD_CAT_ID":60546,"ELEMENT_SET_NO":999,"REV_AT_EPOCH":10476,"BSTAR":0.00018172891,"MEAN_MOTION_DOT":0.00002206,"MEAN_MOTION_DDOT":0},{"OBJECT_NAME":"ICEYE-X33","OBJECT_ID":"2024-149CJ","EPOCH":"2026-07-18T04:04:41.254752","CLASSIFICATION_TYPE":"U","MEAN_MOTION":15.00900109,"ECCENTRICITY":0.00018784,"INCLINATION":97.7373,"RA_OF_ASC_NODE":278.1572,"ARG_OF_PERICENTER":71.2159,"MEAN_ANOMALY":288.9269,"EPHEMERIS_TYPE":0,"NORAD_CAT_ID":60548,"ELEMENT_SET_NO":999,"REV_AT_EPOCH":10485,"BSTAR":0.00020428976,"MEAN_MOTION_DOT":0.0000254,"MEAN_MOTION_DDOT":0}]}
