ICEYE-X2                
1 43800U 18099AU  26199.32288271  .00001113  00000+0  57894-4 0  9994
2 43800  97.4334 252.6193 0010198 183.6376 176.4786 15.18059066417549
ICEYE-X4                
1 44390U 19038D   26199.33637336  .00006072  00000+0  21202-3 0  9996
2 44390  97.8743 234.0933 0013192 186.9266 173.1793 15.29921640386566
ICEYE-X7                
1 46496U 20068L   26199.30037277  .00005711  00000+0  18673-3 0  9992
2 46496  97.7514 167.2582 0006353 200.2878 159.8111 15.32134926319554
ICEYE-X6                
1 46497U 20068M   26199.24860625  .00001262  00000+0  94491-4 0  9997
2 46497  98.0993 194.4103 0006961   1.7511 358.3737 15.04676292317907
ICEYE-X21               
1 55049U 23001AS  26175.21618542  .01585954  23968-5  60214-3 0  9995
2 55049  97.3001 262.6152 0012377 285.9702  74.0225 16.24069885194757
ICEYE-X25               
1 56963U 23084AH  26199.26175418  .00018746  00000+0  20823-3 0  9990
2 56963  97.5921 347.7231 0004466 175.8359 184.2937 15.62958135172828
ICEYE-X31               
1 58288U 23174AJ  26199.23576605  .00009437  00000+0  27814-3 0  9996
2 58288  97.3766 274.9865 0003030 177.6859 182.4399 15.35235604149511
ICEYE-X34               
1 58294U 23174AQ  26199.18626901  .00110602  00000+0  84049-3 0  9992
2 58294  97.3859 292.0251 0002080 218.0301 142.0815 15.71969336150600
ICEYE-X35               
1 58302U 23174AY  26199.27894910  .00033792  00000+0  49674-3 0  9998
2 58302  97.3780 284.7754 0007473  97.7533 262.4570 15.55376721150178
ICEYE-X38               
1 59100U 24043C   26199.33358579  .00002321  00000+0  13502-3 0  9999
2 59100  97.8444 343.9488 0002053  11.7517 348.3761 15.13106841116385
ICEYE-X37               
1 59102U 24043E   26199.20480594  .00002057  00000+0  14419-3 0  9994
2 59102  97.8346 336.7028 0013902 263.0249  96.9396 15.06302546129754
ICEYE-X36               
1 59103U 24043F   26199.12394190  .00002283  00000+0  15579-3 0  9991
2 59103  97.8412 337.7569 0005507 202.1022 157.9969 15.07248320129805
ICEYE-X43               
1 60539U 24149BZ  26199.18718609  .00000577  00000+0  51418-4 0  9991
2 60539  97.6790 275.7361 0006391 334.2876  25.8028 14.99790598104760
ICEYE-X39               
1 60546U 24149CG  26199.16316003  .00002206  00000+0  18173-3 0  9990
2 60546  97.6795 275.7706 0006882  38.4282 321.7430 15.00086374104763
ICEYE-X33               
1 60548U 24149CJ  26199.16992193  .00002540  00000+0  20429-3 0  9990
2 60548  97.7373 278.1572 0001878  71.2159 288.9269 15.00900109104859
